<?xml version="1.0" encoding="UTF-8"?>
<kml xmlns="http://www.opengis.net/kml/2.2" xmlns:gx="http://www.google.com/kml/ext/2.2" xmlns:kml="http://www.opengis.net/kml/2.2" xmlns:atom="http://www.w3.org/2005/Atom">
<Document id="document">
	<name>Templergraben</name>
	<gx:CascadingStyle kml:id="__managed_style_02FDD56B3840FC464066_highlight">
		<styleUrl>https://earth.google.com/balloon_components/base/1.1.0.0/card_template.kml#main</styleUrl>
		<Style>
			<IconStyle>
				<scale>1.2</scale>
				<Icon>
					<href>https://earth.google.com/earth/document/icon?color=1976d2&amp;id=2000&amp;scale=4</href>
				</Icon>
				<hotSpot x="64" y="128" xunits="pixels" yunits="insetPixels"/>
			</IconStyle>
			<LabelStyle>
			</LabelStyle>
			<LineStyle>
				<color>ff5053ef</color>
				<width>6</width>
			</LineStyle>
			<PolyStyle>
				<color>40ffffff</color>
			</PolyStyle>
			<BalloonStyle>
			</BalloonStyle>
		</Style>
	</gx:CascadingStyle>
	<gx:CascadingStyle kml:id="__managed_style_02FDD56B3840FC464066_normal">
		<styleUrl>https://earth.google.com/balloon_components/base/1.1.0.0/card_template.kml#main</styleUrl>
		<Style>
			<IconStyle>
				<Icon>
					<href>https://earth.google.com/earth/document/icon?color=1976d2&amp;id=2000&amp;scale=4</href>
				</Icon>
				<hotSpot x="64" y="128" xunits="pixels" yunits="insetPixels"/>
			</IconStyle>
			<LabelStyle>
			</LabelStyle>
			<LineStyle>
				<color>ff5053ef</color>
				<width>4</width>
			</LineStyle>
			<PolyStyle>
				<color>40ffffff</color>
			</PolyStyle>
			<BalloonStyle>
			</BalloonStyle>
		</Style>
	</gx:CascadingStyle>
	<StyleMap id="__managed_style_02FDD56B3840FC464066">
		<Pair>
			<key>normal</key>
			<styleUrl>#__managed_style_02FDD56B3840FC464066_normal</styleUrl>
		</Pair>
		<Pair>
			<key>highlight</key>
			<styleUrl>#__managed_style_02FDD56B3840FC464066_highlight</styleUrl>
		</Pair>
	</StyleMap>
	<gx:CascadingStyle kml:id="__managed_style_0664A08F7B40FC451C84_highlight">
		<styleUrl>https://earth.google.com/balloon_components/base/1.1.0.0/card_template.kml#main</styleUrl>
		<Style>
			<IconStyle>
				<scale>1.2</scale>
				<Icon>
					<href>https://earth.google.com/earth/document/icon?color=42a5f5&amp;id=2000&amp;scale=4</href>
				</Icon>
				<hotSpot x="64" y="128" xunits="pixels" yunits="insetPixels"/>
			</IconStyle>
			<LabelStyle>
			</LabelStyle>
			<LineStyle>
				<color>ff2dc0fb</color>
				<width>6</width>
			</LineStyle>
			<PolyStyle>
				<color>40ffffff</color>
			</PolyStyle>
			<BalloonStyle>
			</BalloonStyle>
		</Style>
	</gx:CascadingStyle>
	<gx:CascadingStyle kml:id="__managed_style_08AF792E9040FC43AD6C_normal">
		<styleUrl>https://earth.google.com/balloon_components/base/1.1.0.0/card_template.kml#main</styleUrl>
		<Style>
			<IconStyle>
				<Icon>
					<href>https://earth.google.com/earth/document/icon?color=303f9f&amp;id=2000&amp;scale=4</href>
				</Icon>
				<hotSpot x="64" y="128" xunits="pixels" yunits="insetPixels"/>
			</IconStyle>
			<LabelStyle>
			</LabelStyle>
			<LineStyle>
				<color>ff2dc0fb</color>
				<width>4</width>
			</LineStyle>
			<PolyStyle>
				<color>40ffffff</color>
			</PolyStyle>
			<BalloonStyle>
			</BalloonStyle>
		</Style>
	</gx:CascadingStyle>
	<gx:CascadingStyle kml:id="__managed_style_0664A08F7B40FC451C84_normal">
		<styleUrl>https://earth.google.com/balloon_components/base/1.1.0.0/card_template.kml#main</styleUrl>
		<Style>
			<IconStyle>
				<Icon>
					<href>https://earth.google.com/earth/document/icon?color=42a5f5&amp;id=2000&amp;scale=4</href>
				</Icon>
				<hotSpot x="64" y="128" xunits="pixels" yunits="insetPixels"/>
			</IconStyle>
			<LabelStyle>
			</LabelStyle>
			<LineStyle>
				<color>ff2dc0fb</color>
				<width>4</width>
			</LineStyle>
			<PolyStyle>
				<color>40ffffff</color>
			</PolyStyle>
			<BalloonStyle>
			</BalloonStyle>
		</Style>
	</gx:CascadingStyle>
	<StyleMap id="__managed_style_08AF792E9040FC43AD6C">
		<Pair>
			<key>normal</key>
			<styleUrl>#__managed_style_08AF792E9040FC43AD6C_normal</styleUrl>
		</Pair>
		<Pair>
			<key>highlight</key>
			<styleUrl>#__managed_style_08AF792E9040FC43AD6C_highlight</styleUrl>
		</Pair>
	</StyleMap>
	<gx:CascadingStyle kml:id="__managed_style_08AF792E9040FC43AD6C_highlight">
		<styleUrl>https://earth.google.com/balloon_components/base/1.1.0.0/card_template.kml#main</styleUrl>
		<Style>
			<IconStyle>
				<scale>1.2</scale>
				<Icon>
					<href>https://earth.google.com/earth/document/icon?color=303f9f&amp;id=2000&amp;scale=4</href>
				</Icon>
				<hotSpot x="64" y="128" xunits="pixels" yunits="insetPixels"/>
			</IconStyle>
			<LabelStyle>
			</LabelStyle>
			<LineStyle>
				<color>ff2dc0fb</color>
				<width>6</width>
			</LineStyle>
			<PolyStyle>
				<color>40ffffff</color>
			</PolyStyle>
			<BalloonStyle>
			</BalloonStyle>
		</Style>
	</gx:CascadingStyle>
	<gx:CascadingStyle kml:id="__managed_style_015BF7059E40FC454034_highlight">
		<styleUrl>https://earth.google.com/balloon_components/base/1.1.0.0/card_template.kml#main</styleUrl>
		<Style>
			<IconStyle>
				<scale>1.2</scale>
				<Icon>
					<href>https://earth.google.com/earth/document/icon?color=ffee58&amp;id=2000&amp;scale=4</href>
				</Icon>
				<hotSpot x="64" y="128" xunits="pixels" yunits="insetPixels"/>
			</IconStyle>
			<LabelStyle>
			</LabelStyle>
			<LineStyle>
				<color>ff2dc0fb</color>
				<width>6</width>
			</LineStyle>
			<PolyStyle>
				<color>40ffffff</color>
			</PolyStyle>
			<BalloonStyle>
			</BalloonStyle>
		</Style>
	</gx:CascadingStyle>
	<gx:CascadingStyle kml:id="__managed_style_015BF7059E40FC454034_normal">
		<styleUrl>https://earth.google.com/balloon_components/base/1.1.0.0/card_template.kml#main</styleUrl>
		<Style>
			<IconStyle>
				<Icon>
					<href>https://earth.google.com/earth/document/icon?color=ffee58&amp;id=2000&amp;scale=4</href>
				</Icon>
				<hotSpot x="64" y="128" xunits="pixels" yunits="insetPixels"/>
			</IconStyle>
			<LabelStyle>
			</LabelStyle>
			<LineStyle>
				<color>ff2dc0fb</color>
				<width>4</width>
			</LineStyle>
			<PolyStyle>
				<color>40ffffff</color>
			</PolyStyle>
			<BalloonStyle>
			</BalloonStyle>
		</Style>
	</gx:CascadingStyle>
	<StyleMap id="__managed_style_0664A08F7B40FC451C84">
		<Pair>
			<key>normal</key>
			<styleUrl>#__managed_style_0664A08F7B40FC451C84_normal</styleUrl>
		</Pair>
		<Pair>
			<key>highlight</key>
			<styleUrl>#__managed_style_0664A08F7B40FC451C84_highlight</styleUrl>
		</Pair>
	</StyleMap>
	<gx:CascadingStyle kml:id="__managed_style_06DA95B8FE40FC4350EE_highlight">
		<styleUrl>https://earth.google.com/balloon_components/base/1.1.0.0/card_template.kml#main</styleUrl>
		<Style>
			<IconStyle>
				<scale>0.9</scale>
				<Icon>
					<href>https://earth.google.com/earth/document/icon?color=ab47bc&amp;id=2000&amp;scale=4</href>
				</Icon>
				<hotSpot x="64" y="128" xunits="pixels" yunits="insetPixels"/>
			</IconStyle>
			<LabelStyle>
			</LabelStyle>
			<LineStyle>
				<color>ff2dc0fb</color>
				<width>6</width>
			</LineStyle>
			<PolyStyle>
				<color>40ffffff</color>
			</PolyStyle>
			<BalloonStyle>
			</BalloonStyle>
		</Style>
	</gx:CascadingStyle>
	<StyleMap id="__managed_style_015BF7059E40FC454034">
		<Pair>
			<key>normal</key>
			<styleUrl>#__managed_style_015BF7059E40FC454034_normal</styleUrl>
		</Pair>
		<Pair>
			<key>highlight</key>
			<styleUrl>#__managed_style_015BF7059E40FC454034_highlight</styleUrl>
		</Pair>
	</StyleMap>
	<gx:CascadingStyle kml:id="__managed_style_06DA95B8FE40FC4350EE_normal">
		<styleUrl>https://earth.google.com/balloon_components/base/1.1.0.0/card_template.kml#main</styleUrl>
		<Style>
			<IconStyle>
				<scale>0.75</scale>
				<Icon>
					<href>https://earth.google.com/earth/document/icon?color=ab47bc&amp;id=2000&amp;scale=4</href>
				</Icon>
				<hotSpot x="64" y="128" xunits="pixels" yunits="insetPixels"/>
			</IconStyle>
			<LabelStyle>
			</LabelStyle>
			<LineStyle>
				<color>ff2dc0fb</color>
				<width>4</width>
			</LineStyle>
			<PolyStyle>
				<color>40ffffff</color>
			</PolyStyle>
			<BalloonStyle>
			</BalloonStyle>
		</Style>
	</gx:CascadingStyle>
	<StyleMap id="__managed_style_06DA95B8FE40FC4350EE">
		<Pair>
			<key>normal</key>
			<styleUrl>#__managed_style_06DA95B8FE40FC4350EE_normal</styleUrl>
		</Pair>
		<Pair>
			<key>highlight</key>
			<styleUrl>#__managed_style_06DA95B8FE40FC4350EE_highlight</styleUrl>
		</Pair>
	</StyleMap>
	<Placemark id="04688638DD40FC430ED0">
		<name>Balkon_1</name>
		<LookAt>
			<longitude>6.077031587600359</longitude>
			<latitude>50.77648135617463</latitude>
			<altitude>182.1632528973285</altitude>
			<heading>359.9999600581012</heading>
			<tilt>0</tilt>
			<gx:fovy>30.00000743</gx:fovy>
			<range>25.00145624218931</range>
			<altitudeMode>absolute</altitudeMode>
		</LookAt>
		<styleUrl>#__managed_style_06DA95B8FE40FC4350EE</styleUrl>
		<Point>
			<coordinates>6.077016328485207,50.77648778886836,182.1572560910104</coordinates>
		</Point>
	</Placemark>
	<Placemark id="0D646CBE3840FC437CD9">
		<name>Balkon_2</name>
		<LookAt>
			<longitude>6.077031587600359</longitude>
			<latitude>50.77648135617463</latitude>
			<altitude>182.1632528973285</altitude>
			<heading>359.9999600581012</heading>
			<tilt>0</tilt>
			<gx:fovy>30.00000743</gx:fovy>
			<range>25.00145624218931</range>
			<altitudeMode>absolute</altitudeMode>
		</LookAt>
		<styleUrl>#__managed_style_08AF792E9040FC43AD6C</styleUrl>
		<Point>
			<coordinates>6.077011067411511,50.77647671515103,182.1266003787015</coordinates>
		</Point>
	</Placemark>
	<Placemark id="08CB96247640FC444D30">
		<name>Templergraben_1</name>
		<LookAt>
			<longitude>6.0769063438097</longitude>
			<latitude>50.77652876823188</latitude>
			<altitude>191.6368845826686</altitude>
			<heading>359.9999602043881</heading>
			<tilt>0</tilt>
			<gx:fovy>30.00000743</gx:fovy>
			<range>39.64338893613785</range>
			<altitudeMode>absolute</altitudeMode>
		</LookAt>
		<styleUrl>#__managed_style_015BF7059E40FC454034</styleUrl>
		<Point>
			<coordinates>6.076779734351103,50.77659467685434,177.8349206841328</coordinates>
		</Point>
	</Placemark>
	<Placemark id="0C32A715BE40FC44A578">
		<name>BlauesHaus</name>
		<LookAt>
			<longitude>6.07682041779074</longitude>
			<latitude>50.77658411310157</latitude>
			<altitude>177.6020319733736</altitude>
			<heading>359.999960296091</heading>
			<tilt>0</tilt>
			<gx:fovy>30.00000743</gx:fovy>
			<range>53.6782365644558</range>
			<altitudeMode>absolute</altitudeMode>
		</LookAt>
		<styleUrl>#__managed_style_08AF792E9040FC43AD6C</styleUrl>
		<Point>
			<coordinates>6.076693601751531,50.77663145268301,177.9759874956725</coordinates>
		</Point>
	</Placemark>
	<Placemark id="0F2B31ED5240FC44FB5B">
		<name>Parkplatz</name>
		<LookAt>
			<longitude>6.076820058624524</longitude>
			<latitude>50.77658956794448</latitude>
			<altitude>177.6146844981116</altitude>
			<heading>359.9999604709129</heading>
			<tilt>0</tilt>
			<gx:fovy>30.00000743</gx:fovy>
			<range>74.00846784287751</range>
			<altitudeMode>absolute</altitudeMode>
		</LookAt>
		<styleUrl>#__managed_style_0664A08F7B40FC451C84</styleUrl>
		<Point>
			<coordinates>6.076812101462215,50.77666895561171,177.7274421581052</coordinates>
		</Point>
	</Placemark>
	<Placemark id="0AE303128740FC45E9E7">
		<name>TemplerDreieck</name>
		<LookAt>
			<longitude>6.076672571997292</longitude>
			<latitude>50.77659520356473</latitude>
			<altitude>177.9190470955303</altitude>
			<heading>359.9999602318767</heading>
			<tilt>0</tilt>
			<gx:fovy>30.00000743</gx:fovy>
			<range>45.02676012623397</range>
			<altitudeMode>absolute</altitudeMode>
		</LookAt>
		<styleUrl>#__managed_style_02FDD56B3840FC464066</styleUrl>
		<Polygon>
			<outerBoundaryIs>
				<LinearRing>
					<coordinates>
						6.076693496359235,50.77663166332717,0 6.076779894650257,50.7765947671442,0 6.076812144963577,50.77666926528035,0 6.076693496359235,50.77663166332717,0 
					</coordinates>
				</LinearRing>
			</outerBoundaryIs>
		</Polygon>
	</Placemark>
</Document>
</kml>
